OBJECT_NAME,OBJECT_ID,EPOCH,MEAN_MOTION,ECCENTRICITY,INCLINATION,RA_OF_ASC_NODE,ARG_OF_PERICENTER,MEAN_ANOMALY,EPHEMERIS_TYPE,CLASSIFICATION_TYPE,NORAD_CAT_ID,ELEMENT_SET_NO,REV_AT_EPOCH,BSTAR,MEAN_MOTION_DOT,MEAN_MOTION_DDOT
FLOCK 4BE-27,2024-149AX,2026-07-08T18:39:02.115648,15.34838499,.00032799,97.3819,271.6429,205.0314,155.0771,0,U,60513,999,10545,.21810775E-3,.7288E-4,0
FLOCK 4BE-9,2024-149AY,2026-07-08T18:38:42.177984,15.41460916,.00030798,97.3785,274.2664,189.5176,170.6013,0,U,60514,999,10564,.2882594E-3,.11989E-3,0
FLOCK 4BE-6,2024-149BA,2026-07-08T18:11:39.342336,15.40192015,.00036895,97.3783,273.5644,193.1062,167.0089,0,U,60516,999,10559,.27191308E-3,.10837E-3,0
FLOCK 4BE-14,2024-149BB,2026-07-08T18:52:15.328992,15.41707178,.00046189,97.3688,273.7492,197.3440,162.7650,0,U,60517,999,10565,.30019131E-3,.12595E-3,0
FLOCK 4BE-1,2024-149BC,2026-07-08T18:42:29.005632,15.43351740,.00044091,97.3771,275.0981,197.4184,162.6913,0,U,60518,999,10570,.31605995E-3,.14018E-3,0
FLOCK 4BE-28,2024-149BD,2026-07-08T18:15:44.754624,15.45886309,.0004426,97.3740,275.8716,193.5575,166.5556,0,U,60519,999,10577,.70234842E-3,.3415E-3,0
IPERDRONE.0,2024-149BE,2026-07-08T19:24:40.879872,15.70168447,.00040639,97.3764,284.1409,180.9096,179.2160,0,U,60520,999,10630,.59228535E-3,.71957E-3,0
TRANSPORTER-11 OBJECT BF,2024-149BF,2026-07-08T19:44:38.057280,16.01162793,.0008385,97.3765,287.6622,242.1532,117.8898,0,U,60521,999,10652,.10977188E-2,.594965E-2,.16219772E-3
CONNECTA IOT-2,2024-149BG,2026-07-08T18:44:34.540512,15.24159512,.00050489,97.3833,267.6010,239.9580,120.1157,0,U,60522,999,10518,.12608006E-3,.2998E-4,0
CONNECTA IOT-4,2024-149BJ,2026-07-08T17:51:39.743136,15.42989279,.0005471,97.3790,274.3801,196.4124,163.6947,0,U,60524,999,10565,.34989416E-3,.15345E-3,0
ORESAT0.5,2024-149BK,2026-07-08T17:50:55.788000,15.45926999,.00056279,97.3718,276.0856,185.6029,174.5159,0,U,60525,999,10580,.31850066E-3,.15426E-3,0
DEIMOS,2024-149BL,2026-07-08T18:54:57.164832,15.45024266,.00055448,97.3780,276.2593,191.8497,168.2623,0,U,60526,999,10578,.3158322E-3,.14829E-3,0
CUAVA-2,2024-149BM,2026-07-08T18:31:25.040640,15.36629267,.00063348,97.3720,271.3338,202.4209,157.6759,0,U,60527,999,10548,.26561269E-3,.9425E-4,0
ERNST,2024-149BN,2026-07-08T19:32:49.582464,15.39781528,.00055982,97.3803,273.7041,202.1546,157.9459,0,U,60528,999,10560,.23034662E-3,.9045E-4,0
TORO,2024-149BQ,2026-07-08T18:29:37.663584,14.96508606,.00015285,97.6785,264.0356,93.4893,266.6504,0,U,60530,999,10318,.10884993E-3,.118E-4,0
HYPSO-2,2024-149BR,2026-07-07T16:42:14.807808,14.98904414,.00019125,97.6823,264.6570,108.2868,251.8563,0,U,60531,999,10312,.21835748E-3,.2581E-4,0
LEMU NGE,2024-149BS,2026-07-08T17:41:20.923008,14.95041832,.00006878,97.6829,264.2614,56.8997,303.2290,0,U,60532,999,10317,.12930259E-3,.1359E-4,0
LEMUR-2-STELLA,2024-149BT,2026-07-08T17:19:33.095712,15.12280986,.00010443,97.6728,272.2767,111.1578,248.9764,0,U,60533,999,10375,.47339544E-3,.8128E-4,0
SATELIOT_2,2024-149BU,2026-07-08T18:12:24.706656,14.96444282,.00019573,97.6823,264.3212,85.6592,274.4853,0,U,60534,999,10319,.17952553E-3,.1979E-4,0
NIGHTJAR,2024-149BV,2026-07-08T18:03:14.694624,14.99140101,.00021748,97.6825,266.1559,108.4833,251.6626,0,U,60535,999,14610,.19514296E-3,.2314E-4,0
LEMUR-2-MARHISYAM,2024-149BW,2026-07-08T18:38:08.747232,15.11695085,.00027861,97.6875,272.8024,79.1951,280.9593,0,U,60536,999,10374,.47514875E-3,.8027E-4,0
SATELIOT_4,2024-149BX,2026-07-08T18:21:41.951232,14.96747679,.00015999,97.6736,263.8403,21.8268,338.3022,0,U,60537,999,10320,.15956403E-3,.1767E-4,0
PICO-02A021,2024-149BY,2026-07-08T17:33:38.084256,15.03460922,.00032008,97.6747,268.3815,317.3767,42.7209,0,U,60538,999,10297,.19830685E-3,.264E-4,0
ICEYE-X43,2024-149BZ,2026-07-08T18:43:09.815808,14.99772584,.00069538,97.6814,266.4552,14.9788,345.1640,0,U,60539,999,10335,.14675091E-3,.1755E-4,0
HAWK-10A,2024-149CA,2026-07-08T21:35:41.998560,14.96582101,.00036849,97.6892,265.4382,27.8367,332.3051,0,U,60540,999,10323,.13531937E-3,.1483E-4,0
UMBRA-09,2024-149CB,2026-07-08T19:33:47.491200,15.18714157,.00016901,97.6968,277.4001,215.5385,144.5736,0,U,60541,999,10400,.48108872E-3,.992E-4,0
QPS-SAR-8 (AMATERU-IV),2024-149CC,2026-07-08T19:30:25.618464,15.04360545,.00044025,97.6667,268.7834,61.5447,298.6222,0,U,60542,999,10352,.22509066E-3,.3079E-4,0
ARCTIC WEATHER SATELLITE,2024-149CD,2026-07-08T18:44:09.245184,14.89821552,.0003307,97.6793,259.6278,64.1630,295.9929,0,U,60543,999,10251,.69970158E-4,.618E-5,0
CAPELLA-15 (ACADIA-5),2024-149CE,2026-07-08T18:40:01.354944,14.92382217,.00033866,97.6776,262.1397,8.7995,351.3283,0,U,60544,999,10307,.20207209E-3,.2013E-4,0
HAWK-10B,2024-149CF,2026-07-08T21:35:29.914656,14.96581782,.00060414,97.6812,264.7712,36.6514,323.5120,0,U,60545,999,10323,.12863514E-3,.1407E-4,0
