FLOCK 4BE-27            
1 60513U 24149AX  26189.77710782  .00007288  00000+0  21811-3 0  9990
2 60513  97.3819 271.6429 0003279 205.0314 155.0771 15.34838499105456
FLOCK 4BE-9             
1 60514U 24149AY  26189.77687706  .00011989  00000+0  28826-3 0  9996
2 60514  97.3785 274.2664 0003079 189.5176 170.6013 15.41460916105645
FLOCK 4BE-6             
1 60516U 24149BA  26189.75809424  .00010837  00000+0  27191-3 0  9994
2 60516  97.3783 273.5644 0003689 193.1062 167.0089 15.40192015105595
FLOCK 4BE-14            
1 60517U 24149BB  26189.78628853  .00012595  00000+0  30019-3 0  9999
2 60517  97.3688 273.7492 0004618 197.3440 162.7650 15.41707178105658
FLOCK 4BE-1             
1 60518U 24149BC  26189.77950238  .00014018  00000+0  31606-3 0  9999
2 60518  97.3771 275.0981 0004409 197.4184 162.6913 15.43351740105703
FLOCK 4BE-28            
1 60519U 24149BD  26189.76093466  .00034150  00000+0  70235-3 0  9990
2 60519  97.3740 275.8716 0004426 193.5575 166.5556 15.45886309105773
IPERDRONE.0             
1 60520U 24149BE  26189.80880648  .00071957  00000+0  59229-3 0  9999
2 60520  97.3764 284.1409 0004063 180.9096 179.2160 15.70168447106304
TRANSPORTER-11 OBJECT BF
1 60521U 24149BF  26189.82266270  .00594965  16220-3  10977-2 0  9991
2 60521  97.3765 287.6622 0008385 242.1532 117.8898 16.01162793106521
CONNECTA IOT-2          
1 60522U 24149BG  26189.78095533  .00002998  00000+0  12608-3 0  9998
2 60522  97.3833 267.6010 0005048 239.9580 120.1157 15.24159512105182
CONNECTA IOT-4          
1 60524U 24149BJ  26189.74420999  .00015345  00000+0  34989-3 0  9990
2 60524  97.3790 274.3801 0005471 196.4124 163.6947 15.42989279105652
ORESAT0.5               
1 60525U 24149BK  26189.74370125  .00015426  00000+0  31850-3 0  9990
2 60525  97.3718 276.0856 0005627 185.6029 174.5159 15.45926999105805
DEIMOS                  
1 60526U 24149BL  26189.78816163  .00014829  00000+0  31583-3 0  9991
2 60526  97.3780 276.2593 0005544 191.8497 168.2623 15.45024266105780
CUAVA-2                 
1 60527U 24149BM  26189.77181760  .00009425  00000+0  26561-3 0  9995
2 60527  97.3720 271.3338 0006334 202.4209 157.6759 15.36629267105487
ERNST                   
1 60528U 24149BN  26189.81446276  .00009045  00000+0  23035-3 0  9998
2 60528  97.3803 273.7041 0005598 202.1546 157.9459 15.39781528105605
TORO                    
1 60530U 24149BQ  26189.77057481  .00001180  00000+0  10885-3 0  9993
2 60530  97.6785 264.0356 0001528  93.4893 266.6504 14.96508606103183
HYPSO-2                 
1 60531U 24149BR  26188.69600472  .00002581  00000+0  21836-3 0  9992
2 60531  97.6823 264.6570 0001912 108.2868 251.8563 14.98904414103129
LEMU NGE                
1 60532U 24149BS  26189.73704772  .00001359  00000+0  12930-3 0  9994
2 60532  97.6829 264.2614 0000687  56.8997 303.2290 14.95041832103177
LEMUR-2-STELLA          
1 60533U 24149BT  26189.72191083  .00008128  00000+0  47340-3 0  9993
2 60533  97.6728 272.2767 0001044 111.1578 248.9764 15.12280986103752
SATELIOT_2              
1 60534U 24149BU  26189.75861929  .00001979  00000+0  17953-3 0  9994
2 60534  97.6823 264.3212 0001957  85.6592 274.4853 14.96444282103193
NIGHTJAR                
1 60535U 24149BV  26189.75225341  .00002314  00000+0  19514-3 0  9996
2 60535  97.6825 266.1559 0002174 108.4833 251.6626 14.99140101146103
LEMUR-2-MARHISYAM       
1 60536U 24149BW  26189.77649013  .00008027  00000+0  47515-3 0  9994
2 60536  97.6875 272.8024 0002786  79.1951 280.9593 15.11695085103746
SATELIOT_4              
1 60537U 24149BX  26189.76506888  .00001767  00000+0  15956-3 0  9994
2 60537  97.6736 263.8403 0001599  21.8268 338.3022 14.96747679103205
PICO-02A021             
1 60538U 24149BY  26189.73169079  .00002640  00000+0  19831-3 0  9996
2 60538  97.6747 268.3815 0003200 317.3767  42.7209 15.03460922102971
ICEYE-X43               
1 60539U 24149BZ  26189.77997472  .00001755  00000+0  14675-3 0  9994
2 60539  97.6814 266.4552 0006953  14.9788 345.1640 14.99772584103351
HAWK-10A                
1 60540U 24149CA  26189.89979165  .00001483  00000+0  13532-3 0  9997
2 60540  97.6892 265.4382 0003684  27.8367 332.3051 14.96582101103235
UMBRA-09                
1 60541U 24149CB  26189.81513300  .00009920  00000+0  48109-3 0  9997
2 60541  97.6968 277.4001 0001690 215.5385 144.5736 15.18714157104004
QPS-SAR-8 (AMATERU-IV)  
1 60542U 24149CC  26189.81279651  .00003079  00000+0  22509-3 0  9991
2 60542  97.6667 268.7834 0004402  61.5447 298.6222 15.04360545103520
ARCTIC WEATHER SATELLITE
1 60543U 24149CD  26189.78066256  .00000618  00000+0  69970-4 0  9993
2 60543  97.6793 259.6278 0003307  64.1630 295.9929 14.89821552102512
CAPELLA-15 (ACADIA-5)   
1 60544U 24149CE  26189.77779346  .00002013  00000+0  20207-3 0  9994
2 60544  97.6776 262.1397 0003386   8.7995 351.3283 14.92382217103076
HAWK-10B                
1 60545U 24149CF  26189.89965179  .00001407  00000+0  12864-3 0  9995
2 60545  97.6812 264.7712 0006041  36.6514 323.5120 14.96581782103236
